NORAD_CAT_ID,OBJECT_NAME,OBJECT_TYPE,EPOCH,MEAN_MOTION,ECCENTRICITY,INCLINATION,RA_OF_ASC_NODE,ARG_OF_PERICENTER,MEAN_ANOMALY,BSTAR,MEAN_MOTION_DOT,MEAN_MOTION_DDOT,TLE_LINE0,TLE_LINE1,TLE_LINE2,SEMIMAJOR_AXIS,PERIOD,APOGEE,PERIGEE,DECAYED
51768.0,STARLINK-3622,PAYLOAD,2022-10-26 17:47:39,15.08830962,0.0001657,53.2175,100.568,49.4052,310.7084,1.9695e-05,2.5e-07,0.0,0 STARLINK-3622,1 51768U 22017A   22299.74142739  .00000025  00000-0  19695-4 0  9991,2 51768  53.2175 100.5680 0001657  49.4052 310.7084 15.08830962 38360,6917.908,95.438,540.919,538.627,0.0
51768.0,STARLINK-3622,PAYLOAD,2022-10-27 11:16:53,15.08836064,0.0001675999999999,53.2175,97.297,49.6165,310.4973,4.6974e-05,4.6e-06,0.0,0 STARLINK-3622,1 51768U 22017A   22300.47006649  .00000460  00000-0  46974-4 0  9996,2 51768  53.2175  97.2970 0001676  49.6165 310.4973 15.08836064 38477,6917.892,95.438,540.9169999999998,538.5980000000002,0.0
51768.0,STARLINK-3622,PAYLOAD,2022-10-27 12:52:16,15.08839964,0.0001641999999999,53.2175,96.9994,49.2536,310.8598,1.4704e-05,-5.4e-07,0.0,0 STARLINK-3622,1 51768U 22017A   22300.53630542 -.00000054  00000-0  14704-4 0  9994,2 51768  53.2175  96.9994 0001642  49.2536 310.8598 15.08839964 38491,6917.88,95.438,540.881,538.61,0.0
51768.0,STARLINK-3622,PAYLOAD,2022-10-27 19:13:49,15.08843407,0.0001706999999999,53.2175,95.8102,48.6355,311.4783,4.5404e-05,4.35e-06,0.0,0 STARLINK-3622,1 51768U 22017A   22300.80126226  .00000435  00000-0  45404-4 0  9996,2 51768  53.2175  95.8102 0001707  48.6355 311.4783 15.08843407 38528,6917.87,95.437,540.9159999999998,538.554,0.0
51768.0,STARLINK-3622,PAYLOAD,2022-10-28 03:10:44,15.08847066,0.0001710999999999,53.2177,94.3234,48.3221,311.7918,8.5361e-05,1.071e-05,0.0,0 STARLINK-3622,1 51768U 22017A   22301.13245797  .00001071  00000-0  85361-4 0  9991,2 51768  53.2177  94.3234 0001711  48.3221 311.7918 15.08847066 38588,6917.859,95.437,540.9069999999998,538.54,0.0
51768.0,STARLINK-3622,PAYLOAD,2022-10-28 19:04:36,15.08836805,0.0001803,53.218,91.3501,47.9909,312.1237,6.406e-05,7.31e-06,0.0,0 STARLINK-3622,1 51768U 22017A   22301.79486569  .00000731  00000-0  64060-4 0  9992,2 51768  53.2180  91.3501 0001803  47.9909 312.1237 15.08836805 38685,6917.89,95.438,541.002,538.508,0.0
51768.0,STARLINK-3622,PAYLOAD,2022-10-29 03:01:31,15.0884481,0.0001815,53.2182,89.8635,47.4089,312.7056,0.0001189,1.605e-05,0.0,0 STARLINK-3622,1 51768U 22017A   22302.12605907  .00001605  00000-0  11890-3 0  9992,2 51768  53.2182  89.8635 0001815  47.4089 312.7056 15.08844810 38730,6917.866,95.437,540.986,538.475,0.0
51768.0,STARLINK-3622,PAYLOAD,2022-10-29 18:55:23,15.08844178,0.0001938,53.2171,86.8889,47.2775,312.838,2.7508e-05,1.5e-06,0.0,0 STARLINK-3622,1 51768U 22017A   22302.78846152  .00000150  00000-0  27508-4 0  9991,2 51768  53.2171  86.8889 0001938  47.2775 312.8380 15.08844178 38820,6917.868,95.437,541.073,538.3919999999998,0.0
51768.0,STARLINK-3622,PAYLOAD,2022-10-30 20:21:34,15.08831691,0.0001927,53.2169,82.1332,44.8226,315.2922,-4.0456e-05,-9.32e-06,0.0,0 STARLINK-3622,1 51768U 22017A   22303.84831177 -.00000932  00000-0 -40456-4 0  9997,2 51768  53.2169  82.1332 0001927  44.8226 315.2922 15.08831691 38983,6917.906,95.438,541.104,538.438,0.0
51768.0,STARLINK-3622,PAYLOAD,2022-10-31 02:43:06,15.0883672,0.0001665999999999,53.2168,80.9424,49.901,310.2128,-1.1174e-05,-4.66e-06,0.0,0 STARLINK-3622,1 51768U 22017A   22304.11326767 -.00000466  00000-0 -11174-4 0  9999,2 51768  53.2168  80.9424 0001666  49.9010 310.2128 15.08836720 39024,6917.89,95.438,540.908,538.6030000000002,0.0
51768.0,STARLINK-3622,PAYLOAD,2022-10-31 18:36:58,15.08835151,0.000187,53.2178,77.9687,48.42,311.6952,-4.3634e-05,-9.82e-06,0.0,0 STARLINK-3622,1 51768U 22017A   22304.77567211 -.00000982  00000-0 -43634-4 0  9991,2 51768  53.2178  77.9687 0001870  48.4200 311.6952 15.08835151 39133,6917.895,95.438,541.054,538.467,0.0
51768.0,STARLINK-3622,PAYLOAD,2022-10-31 20:12:21,15.08836211,0.0001909999999999,53.2176,77.6718,47.3778,312.7375,-2.8004e-05,-7.34e-06,0.0,0 STARLINK-3622,1 51768U 22017A   22304.84191116 -.00000734  00000-0 -28004-4 0  9995,2 51768  53.2176  77.6718 0001910  47.3778 312.7375 15.08836211 39135,6917.892,95.438,541.078,538.436,0.0
51768.0,STARLINK-3622,PAYLOAD,2022-11-01 18:27:44,15.08840723,0.0001921,53.2178,73.5085,47.1859,312.9295,0.00011456,1.536e-05,0.0,0 STARLINK-3622,1 51768U 22017A   22305.76926545  .00001536  00000-0  11456-3 0  9990,2 51768  53.2178  73.5085 0001921  47.1859 312.9295 15.08840723 39270,6917.878000000002,95.438,541.072,538.414,0.0
51768.0,STARLINK-3622,PAYLOAD,2022-11-02 11:57:00,15.0882693,0.0001963,53.218,70.2383,27.6073,332.5023,-2.4231e-05,-6.74e-06,0.0,0 STARLINK-3622,1 51768U 22017A   22306.49791941 -.00000674  00000-0 -24231-4 0  9991,2 51768  53.2180  70.2383 0001963  27.6073 332.5023 15.08826930 39388,6917.92,95.438,541.143,538.427,0.0
51768.0,STARLINK-3622,PAYLOAD,2022-11-02 19:53:55,15.08833096,0.00018,53.2182,68.7502,40.7023,319.4104,5.4934e-05,5.86e-06,0.0,0 STARLINK-3622,1 51768U 22017A   22306.82911490  .00000586  00000-0  54934-4 0  9994,2 51768  53.2182  68.7502 0001800  40.7023 319.4104 15.08833096 39437,6917.901,95.438,541.012,538.521,0.0
51768.0,STARLINK-3622,PAYLOAD,2022-11-03 11:47:46,15.08844432,0.0001786999999999,53.2182,65.7765,37.6826,322.4291,1.9414e-05,2.1e-07,0.0,0 STARLINK-3622,1 51768U 22017A   22307.49150941  .00000021  00000-0  19414-4 0  9992,2 51768  53.2182  65.7765 0001787  37.6826 322.4291 15.08844432 39544,6917.8669999999975,95.437,540.9680000000002,538.496,0.0
51768.0,STARLINK-3622,PAYLOAD,2022-11-03 18:09:18,15.08859843,0.0001778,53.2185,64.5876,33.6614,326.4491,3.2887e-05,2.36e-06,0.0,0 STARLINK-3622,1 51768U 22017A   22307.75645909  .00000236  00000-0  32887-4 0  9991,2 51768  53.2185  64.5876 0001778  33.6614 326.4491 15.08859843 39580,6917.82,95.436,540.915,538.455,0.0
51768.0,STARLINK-3622,PAYLOAD,2022-11-03 19:44:40,15.08862936,0.0001713,53.2185,64.2901,33.537,326.5731,4.4972e-05,4.28e-06,0.0,0 STARLINK-3622,1 51768U 22017A   22307.82269605  .00000428  00000-0  44972-4 0  9995,2 51768  53.2185  64.2901 0001713  33.5370 326.5731 15.08862936 39588,6917.81,95.436,540.86,538.49,0.0
51768.0,STARLINK-3622,PAYLOAD,2022-11-04 10:03:08,15.08860838,0.000189,53.2176,61.6137,38.2212,321.8914,0.00040561,6.177e-05,0.0,0 STARLINK-3622,1 51768U 22017A   22308.41885331  .00006177  00000-0  40561-3 0  9997,2 51768  53.2176  61.6137 0001890  38.2212 321.8914 15.08860838 39673,6917.816999999999,95.436,540.989,538.374,0.0
51768.0,STARLINK-3622,PAYLOAD,2022-11-04 18:00:06,15.0882105,0.0002272,53.2178,60.1269,42.0903,318.0263,-0.00023018,-3.948e-05,0.0,0 STARLINK-3622,1 51768U 22017A   22308.75007281 -.00003948  00000-0 -23018-3 0  9997,2 51768  53.2178  60.1269 0002272  42.0903 318.0263 15.08821050 39735,6917.938,95.439,541.375,538.232,0.0
51768.0,STARLINK-3622,PAYLOAD,2022-11-05 09:53:56,15.08833379,0.0002002,53.2187,57.1551,45.1108,315.0046,-0.00022207,-3.82e-05,0.0,0 STARLINK-3622,1 51768U 22017A   22309.41246406 -.00003820  00000-0 -22207-3 0  9993,2 51768  53.2187  57.1551 0002002  45.1108 315.0046 15.08833379 39820,6917.901,95.438,541.151,538.381,0.0
51768.0,STARLINK-3622,PAYLOAD,2022-11-05 16:15:29,15.08833052,0.0002146,53.2189,55.9665,47.9496,312.1678,-0.00020144,-3.492e-05,0.0,0 STARLINK-3622,1 51768U 22017A   22309.67742532 -.00003492  00000-0 -20144-3 0  9995,2 51768  53.2189  55.9665 0002146  47.9496 312.1678 15.08833052 39864,6917.901999999999,95.438,541.251,538.2819999999998,0.0
51768.0,STARLINK-3622,PAYLOAD,2022-11-06 12:55:31,15.08827565,0.0002184,53.2185,52.1002,38.5266,321.5881,-4.3749e-05,-9.84e-06,0.0,0 STARLINK-3622,1 51768U 22017A   22310.53855400 -.00000984  00000-0 -43749-4 0  9991,2 51768  53.2185  52.1002 0002184  38.5266 321.5881 15.08827565 40007,6917.918000000002,95.438,541.294,538.273,0.0
51768.0,STARLINK-3622,PAYLOAD,2022-11-07 17:32:28,15.08831819,0.0002111,53.2183,46.7469,42.1623,317.9532,0.00022499,3.294e-05,0.0,0 STARLINK-3622,1 51768U 22017A   22311.73088640  .00003294  00000-0  22499-3 0  9991,2 51768  53.2183  46.7469 0002111  42.1623 317.9532 15.08831819 40187,6917.905,95.438,541.231,538.31,0.0
51768.0,STARLINK-3622,PAYLOAD,2022-11-08 06:15:32,15.08860049,0.0002121,53.2182,44.368,40.63,319.485,0.00073503,0.00011436,0.0,0 STARLINK-3622,1 51768U 22017A   22312.26079622  .00011436  00000-0  73503-3 0  9999,2 51768  53.2182  44.3680 0002121  40.6300 319.4850 15.08860049 40267,6917.819,95.436,541.151,538.217,0.0
51768.0,STARLINK-3622,PAYLOAD,2022-11-08 09:26:19,15.08866514,0.0002139,53.2182,43.7733,41.5131,318.6023,0.00099942,0.00015665,0.0,0 STARLINK-3622,1 51768U 22017A   22312.39327649  .00015665  00000-0  99942-3 0  9991,2 51768  53.2182  43.7733 0002139  41.5131 318.6023 15.08866514 40277,6917.799,95.436,541.144,538.185,0.0
51768.0,STARLINK-3622,PAYLOAD,2022-11-08 14:12:28,15.0887316,0.0002114,53.2184,42.8814,39.6175,320.4971,0.0010299,0.00016156,0.0,0 STARLINK-3622,1 51768U 22017A   22312.59199357  .00016156  00000-0  10299-2 0  9999,2 51768  53.2184  42.8814 0002114  39.6175 320.4971 15.08873160 40300,6917.779,95.435,541.106,538.182,0.0
51768.0,STARLINK-3622,PAYLOAD,2022-11-09 12:27:51,15.0881993,0.000221,53.2188,38.7194,37.5943,322.5203,-0.0019624,-0.00031368,0.0,0 STARLINK-3622,1 51768U 22017A   22313.51934077 -.00031368  00000-0 -19624-2 0  9993,2 51768  53.2188  38.7194 0002210  37.5943 322.5203 15.08819930 40447,6917.941999999999,95.439,541.336,538.278,0.0
51768.0,STARLINK-3622,PAYLOAD,2022-11-09 17:14:00,15.08808125,0.0002352,53.2188,37.8274,33.4191,326.6949,-0.00093734,-0.00015163,0.0,0 STARLINK-3622,1 51768U 22017A   22313.71806581 -.00015163  00000-0 -93734-3 0  9993,2 51768  53.2188  37.8274 0002352  33.4191 326.6949 15.08808125 40483,6917.978,95.44,541.47,538.216,0.0
